STARLINK-35725          
1 67565U 26016E   26039.91670139 -.00014443  00000+0 -74730-4 0  9992
2 67565  97.2844  98.8996 0001396  93.9453  76.8717 15.80831283  3419
STARLINK-36394          
1 67566U 26016F   26039.91670139 -.00039094  00000+0 -20397-3 0  9991
2 67566  97.2787  98.9066 0001460  70.4620 122.7329 15.80847685  3528
STARLINK-36352          
1 67567U 26016G   26039.91670139 -.00063284  00000+0 -33155-3 0  9996
2 67567  97.2785  98.9031 0001357  71.6808 114.7514 15.80848231  3429
STARLINK-36435          
1 67568U 26016H   26039.91670139 -.00037106  00000+0 -19354-3 0  9996
2 67568  97.2784  98.9094 0001488  69.6565 129.5714 15.80845297  3425
STARLINK-36575          
1 67569U 26016J   26039.91670139 -.00002500  00000+0 -12306-4 0  9998
2 67569  97.2840  98.9144 0001297 114.2860  91.8311 15.80827496  3423
STARLINK-36562          
1 67570U 26016K   26039.91670139 -.00041420  00000+0 -21625-3 0  9997
2 67570  97.2844  98.9167 0001350  78.9155 132.3842 15.80842910  3425
STARLINK-36578          
1 67571U 26016L   26039.91670139 -.01943841  00000+0 -12072-1 0  9991
2 67571  97.2841  98.9180 0002069  97.6862 119.2666 15.80035455  3403
STARLINK-36350          
1 67572U 26016M   26039.91670139 -.00054820  00000+0 -28687-3 0  9992
2 67572  97.2780  98.9198 0001362  77.0738 147.5702 15.80844851  3317
STARLINK-36588          
1 67573U 26016N   26039.91670139  .00009478  00000+0  50153-4 0  9994
2 67573  97.2843  98.9241 0001452 102.2197 130.7954 15.80822825  3474
STARLINK-36594          
1 67574U 26016P   26039.91670139  .00024072  00000+0  12617-3 0  9994
2 67574  97.2843  98.9252 0001242  88.2133 149.9014 15.80796836  3478
STARLINK-36400          
1 67575U 26016Q   26039.91670139 -.00002232  00000+0 -10908-4 0  9993
2 67575  97.2770  98.9277 0001578 101.1291 142.6162 15.80825803  3366
STARLINK-36591          
1 67576U 26016R   26039.91670139 -.00018459  00000+0 -95778-4 0  9990
2 67576  97.2846  98.9305 0001408 100.6685 148.9882 15.80827783  3420
