CCSDS_OMM_VERS = 2.0
CREATION_DATE  = 
ORIGINATOR     = 

OBJECT_NAME    = STARLINK-35725
OBJECT_ID      = 2026-016E
CENTER_NAME    = EARTH
REF_FRAME      = TEME
TIME_SYSTEM    = UTC
MEAN_ELEMENT_THEORY = SGP/SGP4

EPOCH          = 2026-02-08T22:00:03.000096
MEAN_MOTION    = 15.80831283
ECCENTRICITY   = .00013962
INCLINATION    = 97.2844
RA_OF_ASC_NODE = 98.8996
ARG_OF_PERICENTER = 93.9453
MEAN_ANOMALY   = 76.8717

EPHEMERIS_TYPE = 0
CLASSIFICATION_TYPE = U
NORAD_CAT_ID   = 67565
ELEMENT_SET_NO = 999
REV_AT_EPOCH   = 341
BSTAR          = -.74730258E-4
MEAN_MOTION_DOT = -.14443E-3
MEAN_MOTION_DDOT = 0

CCSDS_OMM_VERS = 2.0
CREATION_DATE  = 
ORIGINATOR     = 

OBJECT_NAME    = STARLINK-36394
OBJECT_ID      = 2026-016F
CENTER_NAME    = EARTH
REF_FRAME      = TEME
TIME_SYSTEM    = UTC
MEAN_ELEMENT_THEORY = SGP/SGP4

EPOCH          = 2026-02-08T22:00:03.000096
MEAN_MOTION    = 15.80847685
ECCENTRICITY   = .00014606
INCLINATION    = 97.2787
RA_OF_ASC_NODE = 98.9066
ARG_OF_PERICENTER = 70.4620
MEAN_ANOMALY   = 122.7329

EPHEMERIS_TYPE = 0
CLASSIFICATION_TYPE = U
NORAD_CAT_ID   = 67566
ELEMENT_SET_NO = 999
REV_AT_EPOCH   = 352
BSTAR          = -.20397067E-3
MEAN_MOTION_DOT = -.39094E-3
MEAN_MOTION_DDOT = 0

CCSDS_OMM_VERS = 2.0
CREATION_DATE  = 
ORIGINATOR     = 

OBJECT_NAME    = STARLINK-36352
OBJECT_ID      = 2026-016G
CENTER_NAME    = EARTH
REF_FRAME      = TEME
TIME_SYSTEM    = UTC
MEAN_ELEMENT_THEORY = SGP/SGP4

EPOCH          = 2026-02-08T22:00:03.000096
MEAN_MOTION    = 15.80848231
ECCENTRICITY   = .00013578
INCLINATION    = 97.2785
RA_OF_ASC_NODE = 98.9031
ARG_OF_PERICENTER = 71.6808
MEAN_ANOMALY   = 114.7514

EPHEMERIS_TYPE = 0
CLASSIFICATION_TYPE = U
NORAD_CAT_ID   = 67567
ELEMENT_SET_NO = 999
REV_AT_EPOCH   = 342
BSTAR          = -.3315475E-3
MEAN_MOTION_DOT = -.63284E-3
MEAN_MOTION_DDOT = 0

CCSDS_OMM_VERS = 2.0
CREATION_DATE  = 
ORIGINATOR     = 

OBJECT_NAME    = STARLINK-36435
OBJECT_ID      = 2026-016H
CENTER_NAME    = EARTH
REF_FRAME      = TEME
TIME_SYSTEM    = UTC
MEAN_ELEMENT_THEORY = SGP/SGP4

EPOCH          = 2026-02-08T22:00:03.000096
MEAN_MOTION    = 15.80845297
ECCENTRICITY   = .00014882
INCLINATION    = 97.2784
RA_OF_ASC_NODE = 98.9094
ARG_OF_PERICENTER = 69.6565
MEAN_ANOMALY   = 129.5714

EPHEMERIS_TYPE = 0
CLASSIFICATION_TYPE = U
NORAD_CAT_ID   = 67568
ELEMENT_SET_NO = 999
REV_AT_EPOCH   = 342
BSTAR          = -.19353833E-3
MEAN_MOTION_DOT = -.37106E-3
MEAN_MOTION_DDOT = 0

CCSDS_OMM_VERS = 2.0
CREATION_DATE  = 
ORIGINATOR     = 

OBJECT_NAME    = STARLINK-36575
OBJECT_ID      = 2026-016J
CENTER_NAME    = EARTH
REF_FRAME      = TEME
TIME_SYSTEM    = UTC
MEAN_ELEMENT_THEORY = SGP/SGP4

EPOCH          = 2026-02-08T22:00:03.000096
MEAN_MOTION    = 15.80827496
ECCENTRICITY   = .00012974
INCLINATION    = 97.2840
RA_OF_ASC_NODE = 98.9144
ARG_OF_PERICENTER = 114.2860
MEAN_ANOMALY   = 91.8311

EPHEMERIS_TYPE = 0
CLASSIFICATION_TYPE = U
NORAD_CAT_ID   = 67569
ELEMENT_SET_NO = 999
REV_AT_EPOCH   = 342
BSTAR          = -.12306081E-4
MEAN_MOTION_DOT = -.25E-4
MEAN_MOTION_DDOT = 0

CCSDS_OMM_VERS = 2.0
CREATION_DATE  = 
ORIGINATOR     = 

OBJECT_NAME    = STARLINK-36562
OBJECT_ID      = 2026-016K
CENTER_NAME    = EARTH
REF_FRAME      = TEME
TIME_SYSTEM    = UTC
MEAN_ELEMENT_THEORY = SGP/SGP4

EPOCH          = 2026-02-08T22:00:03.000096
MEAN_MOTION    = 15.80842910
ECCENTRICITY   = .00013504
INCLINATION    = 97.2844
RA_OF_ASC_NODE = 98.9167
ARG_OF_PERICENTER = 78.9155
MEAN_ANOMALY   = 132.3842

EPHEMERIS_TYPE = 0
CLASSIFICATION_TYPE = U
NORAD_CAT_ID   = 67570
ELEMENT_SET_NO = 999
REV_AT_EPOCH   = 342
BSTAR          = -.21625346E-3
MEAN_MOTION_DOT = -.4142E-3
MEAN_MOTION_DDOT = 0

CCSDS_OMM_VERS = 2.0
CREATION_DATE  = 
ORIGINATOR     = 

OBJECT_NAME    = STARLINK-36578
OBJECT_ID      = 2026-016L
CENTER_NAME    = EARTH
REF_FRAME      = TEME
TIME_SYSTEM    = UTC
MEAN_ELEMENT_THEORY = SGP/SGP4

EPOCH          = 2026-02-08T22:00:03.000096
MEAN_MOTION    = 15.80035455
ECCENTRICITY   = .00020695
INCLINATION    = 97.2841
RA_OF_ASC_NODE = 98.9180
ARG_OF_PERICENTER = 97.6862
MEAN_ANOMALY   = 119.2666

EPHEMERIS_TYPE = 0
CLASSIFICATION_TYPE = U
NORAD_CAT_ID   = 67571
ELEMENT_SET_NO = 999
REV_AT_EPOCH   = 340
BSTAR          = -.12072357E-1
MEAN_MOTION_DOT = -.1943841E-1
MEAN_MOTION_DDOT = 0

CCSDS_OMM_VERS = 2.0
CREATION_DATE  = 
ORIGINATOR     = 

OBJECT_NAME    = STARLINK-36350
OBJECT_ID      = 2026-016M
CENTER_NAME    = EARTH
REF_FRAME      = TEME
TIME_SYSTEM    = UTC
MEAN_ELEMENT_THEORY = SGP/SGP4

EPOCH          = 2026-02-08T22:00:03.000096
MEAN_MOTION    = 15.80844851
ECCENTRICITY   = .00013628
INCLINATION    = 97.2780
RA_OF_ASC_NODE = 98.9198
ARG_OF_PERICENTER = 77.0738
MEAN_ANOMALY   = 147.5702

EPHEMERIS_TYPE = 0
CLASSIFICATION_TYPE = U
NORAD_CAT_ID   = 67572
ELEMENT_SET_NO = 999
REV_AT_EPOCH   = 331
BSTAR          = -.28687317E-3
MEAN_MOTION_DOT = -.5482E-3
MEAN_MOTION_DDOT = 0

CCSDS_OMM_VERS = 2.0
CREATION_DATE  = 
ORIGINATOR     = 

OBJECT_NAME    = STARLINK-36588
OBJECT_ID      = 2026-016N
CENTER_NAME    = EARTH
REF_FRAME      = TEME
TIME_SYSTEM    = UTC
MEAN_ELEMENT_THEORY = SGP/SGP4

EPOCH          = 2026-02-08T22:00:03.000096
MEAN_MOTION    = 15.80822825
ECCENTRICITY   = .00014521
INCLINATION    = 97.2843
RA_OF_ASC_NODE = 98.9241
ARG_OF_PERICENTER = 102.2197
MEAN_ANOMALY   = 130.7954

EPHEMERIS_TYPE = 0
CLASSIFICATION_TYPE = U
NORAD_CAT_ID   = 67573
ELEMENT_SET_NO = 999
REV_AT_EPOCH   = 347
BSTAR          = .5015277E-4
MEAN_MOTION_DOT = .9478E-4
MEAN_MOTION_DDOT = 0

CCSDS_OMM_VERS = 2.0
CREATION_DATE  = 
ORIGINATOR     = 

OBJECT_NAME    = STARLINK-36594
OBJECT_ID      = 2026-016P
CENTER_NAME    = EARTH
REF_FRAME      = TEME
TIME_SYSTEM    = UTC
MEAN_ELEMENT_THEORY = SGP/SGP4

EPOCH          = 2026-02-08T22:00:03.000096
MEAN_MOTION    = 15.80796836
ECCENTRICITY   = .00012427
INCLINATION    = 97.2843
RA_OF_ASC_NODE = 98.9252
ARG_OF_PERICENTER = 88.2133
MEAN_ANOMALY   = 149.9014

EPHEMERIS_TYPE = 0
CLASSIFICATION_TYPE = U
NORAD_CAT_ID   = 67574
ELEMENT_SET_NO = 999
REV_AT_EPOCH   = 347
BSTAR          = .12617378E-3
MEAN_MOTION_DOT = .24072E-3
MEAN_MOTION_DDOT = 0

CCSDS_OMM_VERS = 2.0
CREATION_DATE  = 
ORIGINATOR     = 

OBJECT_NAME    = STARLINK-36400
OBJECT_ID      = 2026-016Q
CENTER_NAME    = EARTH
REF_FRAME      = TEME
TIME_SYSTEM    = UTC
MEAN_ELEMENT_THEORY = SGP/SGP4

EPOCH          = 2026-02-08T22:00:03.000096
MEAN_MOTION    = 15.80825803
ECCENTRICITY   = .0001578
INCLINATION    = 97.2770
RA_OF_ASC_NODE = 98.9277
ARG_OF_PERICENTER = 101.1291
MEAN_ANOMALY   = 142.6162

EPHEMERIS_TYPE = 0
CLASSIFICATION_TYPE = U
NORAD_CAT_ID   = 67575
ELEMENT_SET_NO = 999
REV_AT_EPOCH   = 336
BSTAR          = -.1090839E-4
MEAN_MOTION_DOT = -.2232E-4
MEAN_MOTION_DDOT = 0

CCSDS_OMM_VERS = 2.0
CREATION_DATE  = 
ORIGINATOR     = 

OBJECT_NAME    = STARLINK-36591
OBJECT_ID      = 2026-016R
CENTER_NAME    = EARTH
REF_FRAME      = TEME
TIME_SYSTEM    = UTC
MEAN_ELEMENT_THEORY = SGP/SGP4

EPOCH          = 2026-02-08T22:00:03.000096
MEAN_MOTION    = 15.80827783
ECCENTRICITY   = .00014085
INCLINATION    = 97.2846
RA_OF_ASC_NODE = 98.9305
ARG_OF_PERICENTER = 100.6685
MEAN_ANOMALY   = 148.9882

EPHEMERIS_TYPE = 0
CLASSIFICATION_TYPE = U
NORAD_CAT_ID   = 67576
ELEMENT_SET_NO = 999
REV_AT_EPOCH   = 342
BSTAR          = -.95778082E-4
MEAN_MOTION_DOT = -.18459E-3
MEAN_MOTION_DDOT = 0

